0 THORAD DELTA 1 DEB
1 08439U 74089CQ  13283.10402484  .00001207  00000-0  47057-2 0  6208
2 08439 102.4072 161.1839 0026815 003.3253 356.8012 12.91647447816958
0 THORAD DELTA 1 DEB
1 08439U 74089CQ  13285.19527517  .00001030  00000-0  40451-2 0  6210
2 08439 102.4072 163.5261 0026899 000.5080 359.6034 12.91656254817224
0 THORAD DELTA 1 DEB
1 08439U 74089CQ  13287.59632361  .00001096  00000-0  42927-2 0  6223
2 08439 102.4064 166.2156 0026826 356.3214 003.7677 12.91661250817535
0 THORAD DELTA 1 DEB
1 08439U 74089CQ  13289.61009494  .00001432  00000-0  55442-2 0  6234
2 08439 102.4060 168.4713 0026807 353.2556 006.8171 12.91666655817793
0 THORAD DELTA 1 DEB
1 08439U 74089CQ  13291.23660134  .00001432  00000-0  55451-2 0  6240
2 08439 102.4061 170.2936 0026717 350.5183 009.5401 12.91666585818001
0 THORAD DELTA 1 DEB
1 08439U 74089CQ  13293.63762693  .00001541  00000-0  59497-2 0  6255
2 08439 102.4060 172.9830 0026651 346.3029 013.7337 12.91673308818311
0 THORAD DELTA 1 DEB
1 08439U 74089CQ  13295.65138305  .00001345  00000-0  52209-2 0  6263
2 08439 102.4062 175.2385 0026584 342.9441 017.0754 12.91681564818570
